{"fetched_at":"2026-07-20T18:28:56.744Z","source":"https://celestrak.org/NORAD/elements/gp.php?GROUP=planet&FORMAT=JSON","constellation":"superdove","records":[{"OBJECT_NAME":"FLOCK 4G-23","OBJECT_ID":"2025-009AQ","EPOCH":"2026-07-20T04:23:16.172448","CLASSIFICATION_TYPE":"U","MEAN_MOTION":15.35007788,"ECCENTRICITY":0.00034968,"INCLINATION":97.3911,"RA_OF_ASC_NODE":282.884,"ARG_OF_PERICENTER":161.455,"MEAN_ANOMALY":198.6821,"EPHEMERIS_TYPE":0,"NORAD_CAT_ID":62647,"ELEMENT_SET_NO":999,"REV_AT_EPOCH":8398,"BSTAR":0.00074431763,"MEAN_MOTION_DOT":0.00025256,"MEAN_MOTION_DDOT":0},{"OBJECT_NAME":"FLOCK 4G-34","OBJECT_ID":"2025-009AT","EPOCH":"2026-07-20T00:45:58.618080","CLASSIFICATION_TYPE":"U","MEAN_MOTION":15.29830621,"ECCENTRICITY":0.00027769,"INCLINATION":97.3955,"RA_OF_ASC_NODE":282.4582,"ARG_OF_PERICENTER":152.6935,"MEAN_ANOMALY":207.4452,"EPHEMERIS_TYPE":0,"NORAD_CAT_ID":62650,"ELEMENT_SET_NO":999,"REV_AT_EPOCH":8393,"BSTAR":0.00020703548,"MEAN_MOTION_DOT":0.00005905,"MEAN_MOTION_DDOT":0},{"OBJECT_NAME":"FLOCK 4G-21","OBJECT_ID":"2025-009AU","EPOCH":"2026-07-19T17:53:10.043232","CLASSIFICATION_TYPE":"U","MEAN_MOTION":15.33059767,"ECCENTRICITY":0.00035691,"INCLINATION":97.3977,"RA_OF_ASC_NODE":283.1999,"ARG_OF_PERICENTER":177.9601,"MEAN_ANOMALY":182.1657,"EPHEMERIS_TYPE":0,"NORAD_CAT_ID":62651,"ELEMENT_SET_NO":999,"REV_AT_EPOCH":8394,"BSTAR":0.00063805928,"MEAN_MOTION_DOT":0.00020333,"MEAN_MOTION_DDOT":0},{"OBJECT_NAME":"FLOCK 4G-31","OBJECT_ID":"2025-009AV","EPOCH":"2026-07-20T03:04:07.298400","CLASSIFICATION_TYPE":"U","MEAN_MOTION":15.29636536,"ECCENTRICITY":0.00023425,"INCLINATION":97.3958,"RA_OF_ASC_NODE":282.5247,"ARG_OF_PERICENTER":149.865,"MEAN_ANOMALY":210.2726,"EPHEMERIS_TYPE":0,"NORAD_CAT_ID":62652,"ELEMENT_SET_NO":999,"REV_AT_EPOCH":8394,"BSTAR":0.00019964449,"MEAN_MOTION_DOT":0.00005657,"MEAN_MOTION_DDOT":0},{"OBJECT_NAME":"FLOCK 4G-4","OBJECT_ID":"2025-009BC","EPOCH":"2026-07-20T03:46:17.632992","CLASSIFICATION_TYPE":"U","MEAN_MOTION":15.32352755,"ECCENTRICITY":0.00051747,"INCLINATION":97.3933,"RA_OF_ASC_NODE":282.3833,"ARG_OF_PERICENTER":176.6488,"MEAN_ANOMALY":183.479,"EPHEMERIS_TYPE":0,"NORAD_CAT_ID":62659,"ELEMENT_SET_NO":999,"REV_AT_EPOCH":14155,"BSTAR":0.00069383269,"MEAN_MOTION_DOT":0.00021641,"MEAN_MOTION_DDOT":0},{"OBJECT_NAME":"FLOCK 4G-6","OBJECT_ID":"2025-009BD","EPOCH":"2026-07-20T02:46:42.205728","CLASSIFICATION_TYPE":"U","MEAN_MOTION":15.30027417,"ECCENTRICITY":0.00034317,"INCLINATION":97.3929,"RA_OF_ASC_NODE":282.3658,"ARG_OF_PERICENTER":184.1638,"MEAN_ANOMALY":175.9575,"EPHEMERIS_TYPE":0,"NORAD_CAT_ID":62660,"ELEMENT_SET_NO":999,"REV_AT_EPOCH":14153,"BSTAR":0.00018261986,"MEAN_MOTION_DOT":0.00005231,"MEAN_MOTION_DDOT":0},{"OBJECT_NAME":"FLOCK 4G-2","OBJECT_ID":"2025-009BE","EPOCH":"2026-07-19T18:45:04.294080","CLASSIFICATION_TYPE":"U","MEAN_MOTION":15.30381076,"ECCENTRICITY":0.00042104,"INCLINATION":97.3999,"RA_OF_ASC_NODE":282.6816,"ARG_OF_PERICENTER":185.2597,"MEAN_ANOMALY":174.86,"EPHEMERIS_TYPE":0,"NORAD_CAT_ID":62661,"ELEMENT_SET_NO":999,"REV_AT_EPOCH":14151,"BSTAR":0.00019711575,"MEAN_MOTION_DOT":0.00005716,"MEAN_MOTION_DDOT":0},{"OBJECT_NAME":"FLOCK 4G-5","OBJECT_ID":"2025-009BG","EPOCH":"2026-07-19T18:35:16.168416","CLASSIFICATION_TYPE":"U","MEAN_MOTION":15.30952976,"ECCENTRICITY":0.00039344,"INCLINATION":97.4018,"RA_OF_ASC_NODE":283.0797,"ARG_OF_PERICENTER":167.3503,"MEAN_ANOMALY":192.7838,"EPHEMERIS_TYPE":0,"NORAD_CAT_ID":62663,"ELEMENT_SET_NO":999,"REV_AT_EPOCH":8392,"BSTAR":0.00016988204,"MEAN_MOTION_DOT":0.00005003,"MEAN_MOTION_DDOT":0},{"OBJECT_NAME":"FLOCK 4G-1","OBJECT_ID":"2025-009BK","EPOCH":"2026-07-20T03:48:53.818272","CLASSIFICATION_TYPE":"U","MEAN_MOTION":15.3024766,"ECCENTRICITY":0.000451,"INCLINATION":97.4012,"RA_OF_ASC_NODE":283.0368,"ARG_OF_PERICENTER":181.8073,"MEAN_ANOMALY":178.3152,"EPHEMERIS_TYPE":0,"NORAD_CAT_ID":62666,"ELEMENT_SET_NO":999,"REV_AT_EPOCH":8395,"BSTAR":0.00021686495,"MEAN_MOTION_DOT":0.00006271,"MEAN_MOTION_DDOT":0},{"OBJECT_NAME":"FLOCK 4G-14","OBJECT_ID":"2025-009BL","EPOCH":"2026-07-19T19:10:39.212544","CLASSIFICATION_TYPE":"U","MEAN_MOTION":15.29789931,"ECCENTRICITY":0.00046784,"INCLINATION":97.4015,"RA_OF_ASC_NODE":282.4718,"ARG_OF_PERICENTER":178.4123,"MEAN_ANOMALY":181.7133,"EPHEMERIS_TYPE":0,"NORAD_CAT_ID":62667,"ELEMENT_SET_NO":999,"REV_AT_EPOCH":8388,"BSTAR":0.00020442391,"MEAN_MOTION_DOT":0.00005823,"MEAN_MOTION_DDOT":0},{"OBJECT_NAME":"FLOCK 4G-10","OBJECT_ID":"2025-009BP","EPOCH":"2026-07-20T04:51:02.178720","CLASSIFICATION_TYPE":"U","MEAN_MOTION":15.29896524,"ECCENTRICITY":0.00042618,"INCLINATION":97.3912,"RA_OF_ASC_NODE":282.1647,"ARG_OF_PERICENTER":193.1338,"MEAN_ANOMALY":166.9793,"EPHEMERIS_TYPE":0,"NORAD_CAT_ID":62670,"ELEMENT_SET_NO":999,"REV_AT_EPOCH":14158,"BSTAR":0.00019922723,"MEAN_MOTION_DOT":0.00005692,"MEAN_MOTION_DDOT":0},{"OBJECT_NAME":"FLOCK 4G-36","OBJECT_ID":"2025-009BU","EPOCH":"2026-07-20T06:17:27.604320","CLASSIFICATION_TYPE":"U","MEAN_MOTION":15.29873163,"ECCENTRICITY":0.00048507,"INCLINATION":97.4003,"RA_OF_ASC_NODE":282.8544,"ARG_OF_PERICENTER":182.0483,"MEAN_ANOMALY":178.0738,"EPHEMERIS_TYPE":0,"NORAD_CAT_ID":62675,"ELEMENT_SET_NO":999,"REV_AT_EPOCH":8395,"BSTAR":0.00021434066,"MEAN_MOTION_DOT":0.00006125,"MEAN_MOTION_DDOT":0},{"OBJECT_NAME":"FLOCK 4G-15","OBJECT_ID":"2025-009BX","EPOCH":"2026-07-20T03:18:39.183264","CLASSIFICATION_TYPE":"U","MEAN_MOTION":15.29962555,"ECCENTRICITY":0.00050125,"INCLINATION":97.4006,"RA_OF_ASC_NODE":282.8743,"ARG_OF_PERICENTER":179.8933,"MEAN_ANOMALY":180.2309,"EPHEMERIS_TYPE":0,"NORAD_CAT_ID":62678,"ELEMENT_SET_NO":999,"REV_AT_EPOCH":14158,"BSTAR":0.00022448315,"MEAN_MOTION_DOT":0.00006437,"MEAN_MOTION_DDOT":0},{"OBJECT_NAME":"FLOCK 4G-30","OBJECT_ID":"2025-009BY","EPOCH":"2026-07-20T04:45:47.444256","CLASSIFICATION_TYPE":"U","MEAN_MOTION":15.34180062,"ECCENTRICITY":0.00047755,"INCLINATION":97.39,"RA_OF_ASC_NODE":282.4815,"ARG_OF_PERICENTER":181.9214,"MEAN_ANOMALY":178.2012,"EPHEMERIS_TYPE":0,"NORAD_CAT_ID":62679,"ELEMENT_SET_NO":999,"REV_AT_EPOCH":14160,"BSTAR":0.00070693512,"MEAN_MOTION_DOT":0.0002336,"MEAN_MOTION_DDOT":0},{"OBJECT_NAME":"FLOCK 4G-18","OBJECT_ID":"2025-009BZ","EPOCH":"2026-07-20T03:40:43.442976","CLASSIFICATION_TYPE":"U","MEAN_MOTION":15.32415389,"ECCENTRICITY":0.00066232,"INCLINATION":97.3996,"RA_OF_ASC_NODE":282.8246,"ARG_OF_PERICENTER":194.0002,"MEAN_ANOMALY":166.1058,"EPHEMERIS_TYPE":0,"NORAD_CAT_ID":62680,"ELEMENT_SET_NO":999,"REV_AT_EPOCH":14158,"BSTAR":0.00069770688,"MEAN_MOTION_DOT":0.00021811,"MEAN_MOTION_DDOT":0},{"OBJECT_NAME":"FLOCK 4G-17","OBJECT_ID":"2025-009CA","EPOCH":"2026-07-20T03:55:48.413856","CLASSIFICATION_TYPE":"U","MEAN_MOTION":15.30143167,"ECCENTRICITY":0.00045856,"INCLINATION":97.391,"RA_OF_ASC_NODE":282.3658,"ARG_OF_PERICENTER":194.6546,"MEAN_ANOMALY":165.4563,"EPHEMERIS_TYPE":0,"NORAD_CAT_ID":62681,"ELEMENT_SET_NO":999,"REV_AT_EPOCH":14159,"BSTAR":0.0002169863,"MEAN_MOTION_DOT":0.00006254,"MEAN_MOTION_DDOT":0}]}
