FLOCK 4G-23             
1 62647U 25009AQ  26201.18282607  .00025256  00000+0  74432-3 0  9998
2 62647  97.3911 282.8840 0003496 161.4550 198.6821 15.35007788 83980
FLOCK 4G-34             
1 62650U 25009AT  26201.03192845  .00005905  00000+0  20704-3 0  9992
2 62650  97.3955 282.4582 0002776 152.6935 207.4452 15.29830621 83937
FLOCK 4G-21             
1 62651U 25009AU  26200.74525513  .00020333  00000+0  63806-3 0  9994
2 62651  97.3977 283.1999 0003569 177.9601 182.1657 15.33059767 83949
FLOCK 4G-31             
1 62652U 25009AV  26201.12786225  .00005657  00000+0  19964-3 0  9995
2 62652  97.3958 282.5247 0002342 149.8650 210.2726 15.29636536 83948
FLOCK 4G-4              
1 62659U 25009BC  26201.15714853  .00021641  00000+0  69383-3 0  9994
2 62659  97.3933 282.3833 0005174 176.6488 183.4790 15.32352755141556
FLOCK 4G-6              
1 62660U 25009BD  26201.11576627  .00005231  00000+0  18262-3 0  9994
2 62660  97.3929 282.3658 0003431 184.1638 175.9575 15.30027417141530
FLOCK 4G-2              
1 62661U 25009BE  26200.78129970  .00005716  00000+0  19712-3 0  9991
2 62661  97.3999 282.6816 0004210 185.2597 174.8600 15.30381076141518
FLOCK 4G-5              
1 62663U 25009BG  26200.77449269  .00005003  00000+0  16988-3 0  9999
2 62663  97.4018 283.0797 0003934 167.3503 192.7838 15.30952976 83921
FLOCK 4G-1              
1 62666U 25009BK  26201.15895623  .00006271  00000+0  21686-3 0  9993
2 62666  97.4012 283.0368 0004510 181.8073 178.3152 15.30247660 83955
FLOCK 4G-14             
1 62667U 25009BL  26200.79906496  .00005823  00000+0  20442-3 0  9995
2 62667  97.4015 282.4718 0004678 178.4123 181.7133 15.29789931 83883
FLOCK 4G-10             
1 62670U 25009BP  26201.20210855  .00005692  00000+0  19923-3 0  9999
2 62670  97.3912 282.1647 0004261 193.1338 166.9793 15.29896524141586
FLOCK 4G-36             
1 62675U 25009BU  26201.26212505  .00006125  00000+0  21434-3 0  9996
2 62675  97.4003 282.8544 0004850 182.0483 178.0738 15.29873163 83951
FLOCK 4G-15             
1 62678U 25009BX  26201.13795351  .00006437  00000+0  22448-3 0  9992
2 62678  97.4006 282.8743 0005012 179.8933 180.2309 15.29962555141580
FLOCK 4G-30             
1 62679U 25009BY  26201.19846579  .00023360  00000+0  70694-3 0  9998
2 62679  97.3900 282.4815 0004775 181.9214 178.2012 15.34180062141602
FLOCK 4G-18             
1 62680U 25009BZ  26201.15328059  .00021811  00000+0  69771-3 0  9997
2 62680  97.3996 282.8246 0006623 194.0002 166.1058 15.32415389141589
FLOCK 4G-17             
1 62681U 25009CA  26201.16375479  .00006254  00000+0  21699-3 0  9998
2 62681  97.3910 282.3658 0004585 194.6546 165.4563 15.30143167141596
